{"type": "FeatureCollection", "features": [ {"type": "Feature", "properties": {"norad_id": 37216, "name": "COSMO-SKYMED 4", "group": "resource", "lat": 52.29852019907061, "lon": -11.925645325670553, "alt_km": 616.881916351359, "timestamp": "2025-12-02T06:27:52.677860+00:00", "meta": {"OBJECT_NAME": "COSMO-SKYMED 4", "OBJECT_ID": "2010-060A", "EPOCH": "2025-12-01T20:10:21.442080", "MEAN_MOTION": 14.8216432, "ECCENTRICITY": 0.0001483, "INCLINATION": 97.8814, "RA_OF_ASC_NODE": 157.3278, "ARG_OF_PERICENTER": 85.0871, "MEAN_ANOMALY": 275.0511, "EPHEMERIS_TYPE": 0, "CLASSIFICATION_TYPE": "U", "NORAD_CAT_ID": 37216, "ELEMENT_SET_NO": 999, "REV_AT_EPOCH": 81533, "BSTAR": 9.1387e-05, "MEAN_MOTION_DOT": 6.76e-06, "MEAN_MOTION_DDOT": 0}, "tle": {"line1": "1 37216U 10060A   25335.84052595  .00000676  00000+0  91387-4 0  9992", "line2": "2 37216  97.8814 157.3278 0001483  85.0871 275.0511 14.82164320815338"}}, "geometry": {"type": "Point", "coordinates": [-11.925645325670553, 52.29852019907061]}}, {"type": "Feature", "properties": {"norad_id": 37387, "name": "RESOURCESAT-2", "group": "resource", "lat": -30.58173249347084, "lon": -145.37831598794105, "alt_km": 829.7653121529966, "timestamp": "2025-12-02T06:27:52.677870+00:00", "meta": {"OBJECT_NAME": "RESOURCESAT-2", "OBJECT_ID": "2011-015A", "EPOCH": "2025-12-01T19:20:27.803040", "MEAN_MOTION": 14.21589885, "ECCENTRICITY": 0.0006826, "INCLINATION": 98.7892, "RA_OF_ASC_NODE": 39.4062, "ARG_OF_PERICENTER": 70.5346, "MEAN_ANOMALY": 289.6568, "EPHEMERIS_TYPE": 0, "CLASSIFICATION_TYPE": "U", "NORAD_CAT_ID": 37387, "ELEMENT_SET_NO": 999, "REV_AT_EPOCH": 75813, "BSTAR": 9.7758e-05, "MEAN_MOTION_DOT": 1.7e-06, "MEAN_MOTION_DDOT": 0}, "tle": {"line1": "1 37387U 11015A   25335.80587735  .00000170  00000+0  97758-4 0  9994", "line2": "2 37387  98.7892  39.4062 0006826  70.5346 289.6568 14.21589885758133"}}, "geometry": {"type": "Point", "coordinates": [-145.37831598794105, -30.58173249347084]}}, {"type": "Feature", "properties": {"norad_id": 37781, "name": "HAIYANG-2A", "group": "resource", "lat": 66.04309438111548, "lon": -44.36872076117602, "alt_km": 960.4833997716942, "timestamp": "2025-12-02T06:27:52.677880+00:00", "meta": {"OBJECT_NAME": "HAIYANG-2A", "OBJECT_ID": "2011-043A", "EPOCH": "2025-12-01T21:25:45.215616", "MEAN_MOTION": 13.78833969, "ECCENTRICITY": 0.0001637, "INCLINATION": 99.3377, "RA_OF_ASC_NODE": 336.9945, "ARG_OF_PERICENTER": 98.7164, "MEAN_ANOMALY": 261.4173, "EPHEMERIS_TYPE": 0, "CLASSIFICATION_TYPE": "U", "NORAD_CAT_ID": 37781, "ELEMENT_SET_NO": 999, "REV_AT_EPOCH": 71949, "BSTAR": 5.1592e-05, "MEAN_MOTION_DOT": 8e-08, "MEAN_MOTION_DDOT": 0}, "tle": {"line1": "1 37781U 11043A   25335.89288444  .00000008  00000+0  51592-4 0  9993", "line2": "2 37781  99.3377 336.9945 0001637  98.7164 261.4173 13.78833969719498"}}, "geometry": {"type": "Point", "coordinates": [-44.36872076117602, 66.04309438111548]}}, {"type": "Feature", "properties": {"norad_id": 37791, "name": "RASAT", "group": "resource", "lat": 71.13380459828883, "lon": 41.16454256896324, "alt_km": 646.7624692401487, "timestamp": "2025-12-02T06:27:52.677891+00:00", "meta": {"OBJECT_NAME": "RASAT", "OBJECT_ID": "2011-044D", "EPOCH": "2025-12-01T20:55:09.738336", "MEAN_MOTION": 14.67883519, "ECCENTRICITY": 0.002196, "INCLINATION": 98.0657, "RA_OF_ASC_NODE": 65.2906, "ARG_OF_PERICENTER": 97.713, "MEAN_ANOMALY": 34.8698, "EPHEMERIS_TYPE": 0, "CLASSIFICATION_TYPE": "U", "NORAD_CAT_ID": 37791, "ELEMENT_SET_NO": 999, "REV_AT_EPOCH": 76423, "BSTAR": 0.0001329, "MEAN_MOTION_DOT": 7.13e-06, "MEAN_MOTION_DDOT": 0}, "tle": {"line1": "1 37791U 11044D   25335.87164049  .00000713  00000+0  13290-3 0  9992", "line2": "2 37791  98.0657  65.2906 0021960  97.7130  34.8698 14.67883519764239"}}, "geometry": {"type": "Point", "coordinates": [41.16454256896324, 71.13380459828883]}}, {"type": "Feature", "properties": {"norad_id": 37841, "name": "SRMSAT", "group": "resource", "lat": 11.205082938840368, "lon": -155.6106049402378, "alt_km": 858.4538451332555, "timestamp": "2025-12-02T06:27:52.677902+00:00", "meta": {"OBJECT_NAME": "SRMSAT", "OBJECT_ID": "2011-058D", "EPOCH": "2025-12-01T00:32:34.903680", "MEAN_MOTION": 14.11504997, "ECCENTRICITY": 0.00117686, "INCLINATION": 19.9697, "RA_OF_ASC_NODE": 178.8696, "ARG_OF_PERICENTER": 183.7167, "MEAN_ANOMALY": 342.1767, "EPHEMERIS_TYPE": 0, "CLASSIFICATION_TYPE": "U", "NORAD_CAT_ID": 37841, "ELEMENT_SET_NO": 999, "REV_AT_EPOCH": 72978, "BSTAR": 9.4135979e-05, "MEAN_MOTION_DOT": 4.38e-06, "MEAN_MOTION_DDOT": 0}, "tle": {"line1": "1 37841U 11058D   25335.02262620  .00000438  00000+0  94136-4 0  9997", "line2": "2 37841  19.9697 178.8696 0011768 183.7167 342.1767 14.11504997729781"}}, "geometry": {"type": "Point", "coordinates": [-155.6106049402378, 11.205082938840368]}}, {"type": "Feature", "properties": {"norad_id": 38012, "name": "PLEIADES 1A", "group": "resource", "lat": -39.4101772028557, "lon": -137.59191054408356, "alt_km": 705.1265177616006, "timestamp": "2025-12-02T06:27:52.677912+00:00", "meta": {"OBJECT_NAME": "PLEIADES 1A", "OBJECT_ID": "2011-076F", "EPOCH": "2025-12-01T20:12:18.533952", "MEAN_MOTION": 14.58543606, "ECCENTRICITY": 0.0001433, "INCLINATION": 98.1835, "RA_OF_ASC_NODE": 48.7781, "ARG_OF_PERICENTER": 82.1765, "MEAN_ANOMALY": 54.3557, "EPHEMERIS_TYPE": 0, "CLASSIFICATION_TYPE": "U", "NORAD_CAT_ID": 38012, "ELEMENT_SET_NO": 999, "REV_AT_EPOCH": 74322, "BSTAR": 0.0001091, "MEAN_MOTION_DOT": 4.61e-06, "MEAN_MOTION_DDOT": 0}, "tle": {"line1": "1 38012U 11076F   25335.84188118  .00000461  00000+0  10910-3 0  9990", "line2": "2 38012  98.1835  48.7781 0001433  82.1765  54.3557 14.58543606743224"}}, "geometry": {"type": "Point", "coordinates": [-137.59191054408356, -39.4101772028557]}}, {"type": "Feature", "properties": {"norad_id": 38038, "name": "ZIYUAN 1-02C (ZY 1-02C)", "group": "resource", "lat": -1.0452166995134151, "lon": -137.6796532465114, "alt_km": 763.5683447623123, "timestamp": "2025-12-02T06:27:52.677923+00:00", "meta": {"OBJECT_NAME": "ZIYUAN 1-02C (ZY 1-02C)", "OBJECT_ID": "2011-079A", "EPOCH": "2025-12-01T21:31:53.766912", "MEAN_MOTION": 14.37991663, "ECCENTRICITY": 0.00067, "INCLINATION": 98.4348, "RA_OF_ASC_NODE": 42.1101, "ARG_OF_PERICENTER": 168.5635, "MEAN_ANOMALY": 246.6253, "EPHEMERIS_TYPE": 0, "CLASSIFICATION_TYPE": "U", "NORAD_CAT_ID": 38038, "ELEMENT_SET_NO": 999, "REV_AT_EPOCH": 73085, "BSTAR": 0.00019752, "MEAN_MOTION_DOT": 5.54e-06, "MEAN_MOTION_DDOT": 0}, "tle": {"line1": "1 38038U 11079A   25335.89715008  .00000554  00000+0  19752-3 0  9996", "line2": "2 38038  98.4348  42.1101 0006700 168.5635 246.6253 14.37991663730856"}}, "geometry": {"type": "Point", "coordinates": [-137.6796532465114, -1.0452166995134151]}}, {"type": "Feature", "properties": {"norad_id": 38046, "name": "ZIYUAN 3-1 (ZY 3-1)", "group": "resource", "lat": 38.83138964253604, "lon": -131.72103848347578, "alt_km": 366.30143700888675, "timestamp": "2025-12-02T06:27:52.677933+00:00", "meta": {"OBJECT_NAME": "ZIYUAN 3-1 (ZY 3-1)", "OBJECT_ID": "2012-001A", "EPOCH": "2025-12-01T20:40:04.198080", "MEAN_MOTION": 15.66528182, "ECCENTRICITY": 0.0002252, "INCLINATION": 97.1784, "RA_OF_ASC_NODE": 42.0395, "ARG_OF_PERICENTER": 36.4349, "MEAN_ANOMALY": 323.7064, "EPHEMERIS_TYPE": 0, "CLASSIFICATION_TYPE": "U", "NORAD_CAT_ID": 38046, "ELEMENT_SET_NO": 999, "REV_AT_EPOCH": 77326, "BSTAR": 0.00065121, "MEAN_MOTION_DOT": 0.00068177, "MEAN_MOTION_DDOT": 0}, "tle": {"line1": "1 38046U 12001A   25335.86115970  .00068177  00000+0  65121-3 0  9996", "line2": "2 38046  97.1784  42.0395 0002252  36.4349 323.7064 15.66528182773266"}}, "geometry": {"type": "Point", "coordinates": [-131.72103848347578, 38.83138964253604]}}, {"type": "Feature", "properties": {"norad_id": 38338, "name": "ARIRANG-3 (KOMPSAT-3)", "group": "resource", "lat": -1.5497118928391216, "lon": -68.99208372827387, "alt_km": 686.6876781389519, "timestamp": "2025-12-02T06:27:52.677944+00:00", "meta": {"OBJECT_NAME": "ARIRANG-3 (KOMPSAT-3)", "OBJECT_ID": "2012-025B", "EPOCH": "2025-12-01T20:36:51.554592", "MEAN_MOTION": 14.61688109, "ECCENTRICITY": 0.0006128, "INCLINATION": 98.3306, "RA_OF_ASC_NODE": 290.3674, "ARG_OF_PERICENTER": 12.7, "MEAN_ANOMALY": 347.4353, "EPHEMERIS_TYPE": 0, "CLASSIFICATION_TYPE": "U", "NORAD_CAT_ID": 38338, "ELEMENT_SET_NO": 999, "REV_AT_EPOCH": 72251, "BSTAR": 0.00015014, "MEAN_MOTION_DOT": 6.99e-06, "MEAN_MOTION_DDOT": 0}, "tle": {"line1": "1 38338U 12025B   25335.85893003  .00000699  00000+0  15014-3 0  9996", "line2": "2 38338  98.3306 290.3674 0006128  12.7000 347.4353 14.61688109722514"}}, "geometry": {"type": "Point", "coordinates": [-68.99208372827387, -1.5497118928391216]}}, {"type": "Feature", "properties": {"norad_id": 38709, "name": "EXACTVIEW-1 (ADS-1B)", "group": "resource", "lat": -58.10729480216679, "lon": 99.13310499979501, "alt_km": 814.9344301055871, "timestamp": "2025-12-02T06:27:52.677955+00:00", "meta": {"OBJECT_NAME": "EXACTVIEW-1 (ADS-1B)", "OBJECT_ID": "2012-039C", "EPOCH": "2025-12-01T18:56:42.203040", "MEAN_MOTION": 14.24900354, "ECCENTRICITY": 0.001122, "INCLINATION": 98.9636, "RA_OF_ASC_NODE": 83.95, "ARG_OF_PERICENTER": 25.4469, "MEAN_ANOMALY": 334.726, "EPHEMERIS_TYPE": 0, "CLASSIFICATION_TYPE": "U", "NORAD_CAT_ID": 38709, "ELEMENT_SET_NO": 999, "REV_AT_EPOCH": 69459, "BSTAR": 8.7721e-05, "MEAN_MOTION_DOT": 1.59e-06, "MEAN_MOTION_DDOT": 0}, "tle": {"line1": "1 38709U 12039C   25335.78937735  .00000159  00000+0  87721-4 0  9992", "line2": "2 38709  98.9636  83.9500 0011220  25.4469 334.7260 14.24900354694591"}}, "geometry": {"type": "Point", "coordinates": [99.13310499979501, -58.10729480216679]}}]}